ORBCOMM FM35            
1 25985U 99065F   23315.44246639  .00001534  00000+0  58863-3 0  9995
2 25985  45.0407 331.5883 0003767 324.8310  35.2288 14.34518931250897
ORBCOMM FM33 [-]        
1 25983U 99065D   23315.56864017  .00001487  00000+0  54453-3 0  9990
2 25983  45.0291 246.4602 0009714   2.2636 167.4245 14.36965926252115
ORBCOMM FM36 [-]        
1 25984U 99065E   23316.07261670  .00001458  00000+0  55814-3 0  9994
2 25984  45.0407 326.4682 0005474 261.7731  98.2496 14.34841757251176
ORBCOMM FM34 [-]        
1 25986U 99065G   23315.40753761  .00001452  00000+0  56028-3 0  9991
2 25986  45.0403 332.2364 0005559 289.0810  70.9435 14.34470676251001
ORBCOMM FM38 [-]        
1 33060U 08031A   23315.79446038  .00002556  00000+0  39333-3 0  9990
2 33060  48.4411 204.0153 0005195  61.2656 298.8779 14.76391417828413
ORBCOMM FM41 [-]        
1 33061U 08031B   23315.96193154  .00001965  00000+0  31088-3 0  9990
2 33061  48.4445 209.4366 0004363  46.9247  49.5802 14.76151200827947
ORBCOMM FM29 [-]        
1 33062U 08031C   23316.15280493  .00002159  00000+0  33959-3 0  9991
2 33062  48.4400 216.5265 0006297  45.9845 107.0409 14.76035070828273
ORBCOMM FM39 [-]        
1 33063U 08031D   23315.50255919  .00002502  00000+0  39636-3 0  9995
2 33063  48.4409 238.8525 0007405  18.5493 341.5688 14.75173937827509
